BEIDOU-3 M17            
1 43706U 18093A   26065.21496850  .00000012  00000+0  00000+0 0  9996
2 43706  54.1711 185.7894 0007108 296.9682  63.1399  1.86228456 49625
BEIDOU-3 M18            
1 43707U 18093B   26065.61398683  .00000015  00000+0  00000+0 0  9999
2 43707  54.1720 185.7676 0006029 341.6621  18.2927  1.86226630 49626
BEIDOU-3 IGSO-1         
1 44204U 19023A   26065.81911682 -.00000207  00000+0  00000+0 0  9992
2 44204  58.5573  38.7007 0025971 236.3637 303.4808  1.00270441  6188
BEIDOU-2 G8             
1 44231U 19027A   26065.82490331 -.00000250  00000+0  00000+0 0  9998
2 44231   1.3990  74.2547 0011620 271.5694 260.0996  1.00275696 25051
BEIDOU-3 IGSO-2         
1 44337U 19035A   26057.68879618 -.00000176  00000+0  00000+0 0  9995
2 44337  55.2338 159.8353 0038734 206.4752 153.7223  1.00247364 24561
BEIDOU-3 M24            
1 44542U 19061A   26065.14698524  .00000012  00000+0  00000+0 0  9995
2 44542  54.3990 186.2022 0008583  21.0011 339.0071  1.86228818 43870
BEIDOU-3 M23            
1 44543U 19061B   26065.81391679  .00000016  00000+0  00000+0 0  9995
2 44543  54.3975 186.1481 0005058  13.8953 345.4949  1.86227427 43881
BEIDOU-3 IGSO-3         
1 44709U 19073A   26063.99963149 -.00000162  00000+0  00000+0 0  9999
2 44709  54.9773 282.0232 0040551 188.9231 171.0493  1.00269134 23418
BEIDOU-3 M22            
1 44793U 19078A   26063.37544912 -.00000060  00000+0  00000+0 0  9999
2 44793  54.0307 303.5169 0007273  35.6258 324.4804  1.86231851 42694
BEIDOU-3 M21            
1 44794U 19078B   26062.97806659 -.00000058  00000+0  00000+0 0  9991
2 44794  54.0042 303.4937 0005911  39.9322 320.1697  1.86227541 42693
BEIDOU-3 M19            
1 44864U 19090A   26064.56032794 -.00000033  00000+0  00000+0 0  9994
2 44864  56.4687  66.2141 0020433 291.4658 245.9437  1.86231373 42308
BEIDOU-3 M20            
1 44865U 19090B   26064.42720734 -.00000032  00000+0  00000+0 0  9997
2 44865  56.4702  66.2529 0017835 302.9017 234.8674  1.86231388 42289
BEIDOU-3 G2             
1 45344U 20017A   26065.81140345 -.00000143  00000+0  00000+0 0  9992
2 45344   2.6592  45.6301 0002728 310.2866 180.7453  1.00272736 22235
BEIDOU-3 G3             
1 45807U 20040A   26065.81738347 -.00000356  00000+0  00000+0 0  9993
2 45807   2.1959  67.1365 0004591 319.6533 182.5056  1.00274500 21042
BEIDOU-3 G4             
1 56564U 23066A   26065.82726352 -.00000115  00000+0  00000+0 0  9993
2 56564   0.6443 311.2389 0002266 156.3494 154.8091  1.00272440 10368
BEIDOU-3 M28            
1 58654U 23207A   26064.12943781 -.00000033  00000+0  00000+0 0  9990
2 58654  55.6609  65.8120 0004920 303.0244  56.9487  1.86229789 14909
BEIDOU-3 M26            
1 58655U 23207B   26065.53778212 -.00000039  00000+0  00000+0 0  9998
2 58655  55.6644  65.7507 0005731 288.8087  71.1446  1.86229716 14918
